{
  "id": 874396483,
  "type": "Feature",
  "properties": {
    "addr:email":"info@hanjan26.com",
    "addr:facebook":"https://www.facebook.com/Hanjan26",
    "addr:full":"36 West 26th Street, Manhattan, New York, NY, USA",
    "addr:housenumber":"36",
    "addr:instagram":"https://instagram.com/hanjan.nyc/",
    "addr:opentable":"http://www.opentable.com/hanjan-reservations-new-york",
    "addr:phone":"212-206-7226",
    "addr:postcode":"10010",
    "addr:street":"West 26th Street",
    "addr:twitter":"https://twitter.com/Hanjan26",
    "addr:website":"http://www.hanjan26.com/",
    "addr:yelp":"http://www.yelp.com/biz/hanjan-new-york",
    "edtf:cessation":"uuuu",
    "edtf:inception":"uuuu",
    "geom:area":0.0,
    "geom:bbox":"-73.990605,40.744353,-73.990605,40.744353",
    "geom:latitude":40.744353,
    "geom:longitude":-73.990605,
    "iso:country":"",
    "mz:is_current":1,
    "src:geom":"mapzen",
    "wof:belongsto":[
        85869245,
        102191575,
        85633793,
        85977539,
        421205771,
        102081863,
        85688543
    ],
    "wof:breaches":[],
    "wof:concordances":{
        "4sq:id":"5076a130e4b004a704367a8f"
    },
    "wof:country":"",
    "wof:created":1466691944,
    "wof:geomhash":"e775eca644b9b5d6272edd35329cae1a",
    "wof:hierarchy":[
        {
            "borough_id":421205771,
            "continent_id":102191575,
            "country_id":85633793,
            "county_id":102081863,
            "locality_id":85977539,
            "neighbourhood_id":85869245,
            "region_id":85688543,
            "venue_id":874396483
        }
    ],
    "wof:id":874396483,
    "wof:lastmodified":1468430676,
    "wof:name":"Hanjan",
    "wof:parent_id":85869245,
    "wof:placetype":"venue",
    "wof:repo":"whosonfirst-data-venue-us-ny",
    "wof:superseded_by":[],
    "wof:supersedes":[],
    "wof:tags":[
        "restaurant",
        "korean"
    ]
},
  "bbox": [
    -73.990605,
    40.744353,
    -73.990605,
    40.744353
],
  "geometry": {"coordinates":[-73.990605,40.744353],"type":"Point"}
}